OBJECT_NAME,OBJECT_ID,EPOCH,MEAN_MOTION,ECCENTRICITY,INCLINATION,RA_OF_ASC_NODE,ARG_OF_PERICENTER,MEAN_ANOMALY,EPHEMERIS_TYPE,CLASSIFICATION_TYPE,NORAD_CAT_ID,ELEMENT_SET_NO,REV_AT_EPOCH,BSTAR,MEAN_MOTION_DOT,MEAN_MOTION_DDOT
STARLINK-37733,2026-122A,2026-06-26T04:00:01.998720,15.49189649,.0001252,97.2848,206.8768,88.1070,121.6312,0,U,69329,999,479,.12111E-3,.6502E-4,0
STARLINK-37772,2026-122B,2026-06-26T04:00:01.998720,15.49299728,.0001296,97.2843,206.9091,91.5957,197.9152,0,U,69330,999,474,-.49875E-2,-.263498E-2,0
STARLINK-37768,2026-122C,2026-06-26T04:00:01.998720,15.49177691,.0001346,97.2846,206.8051,88.9610,308.6886,0,U,69331,999,474,.35923E-3,.19488E-3,0
STARLINK-37833,2026-122D,2026-06-26T04:00:01.998720,15.49191248,.0001116,97.2851,206.8763,90.6550,116.4683,0,U,69332,999,474,.15002E-3,.8077E-4,0
STARLINK-37818,2026-122E,2026-06-26T04:00:01.998720,15.49190049,.0000778,97.2853,206.8559,80.5677,80.5053,0,U,69333,999,479,-.15241E-3,-.8371E-4,0
STARLINK-37868,2026-122F,2026-06-26T04:00:01.998720,15.49232476,.0001454,97.2847,206.9333,95.6057,248.7695,0,U,69334,999,479,-.53403E-1,-.2571553E-1,0
STARLINK-37877,2026-122G,2026-06-26T04:00:01.998720,15.49191172,.0001403,97.2849,206.7982,90.0365,295.1740,0,U,69335,999,479,-.14959E-3,-.8218E-4,0
STARLINK-37791,2026-122H,2026-06-26T04:00:01.998720,15.49187567,.0001605,97.2849,206.8782,98.3897,112.6734,0,U,69336,999,479,.26009E-3,.1408E-3,0
STARLINK-37765,2026-122J,2026-06-26T04:00:01.998720,15.44198346,.0001769,97.2847,206.9882,63.8771,37.2037,0,U,69337,999,484,-.61602E-1,-.2500273E-1,0
STARLINK-37788,2026-122K,2026-06-26T04:00:01.998720,15.49184024,.0000638,97.2851,206.7937,95.1007,279.3499,0,U,69338,999,479,-.15466E-3,-.8491E-4,0
STARLINK-37743,2026-122L,2026-06-26T04:00:01.998720,15.49189795,.000083,97.2851,206.8648,88.1106,94.9021,0,U,69339,999,479,-.74128E-4,-.412E-4,0
STARLINK-37780,2026-122M,2026-06-26T04:00:01.998720,15.49181627,.0001386,97.2850,206.9145,84.4389,210.7177,0,U,69340,999,484,.29666E-3,.16073E-3,0
STARLINK-37781,2026-122N,2026-06-26T04:00:01.998720,15.49188038,.0000722,97.2853,206.7911,77.3481,290.6052,0,U,69341,999,479,.10509E-3,.5629E-4,0
STARLINK-37782,2026-122P,2026-06-26T04:00:01.998720,15.49189052,.0001252,97.2845,206.9637,77.9823,332.4375,0,U,69342,999,479,-.12907E-3,-.7104E-4,0
STARLINK-37776,2026-122Q,2026-06-26T04:00:01.998720,15.49184798,.0000652,97.2848,206.9560,80.3766,312.6120,0,U,69343,999,479,-.19993E-4,-.1177E-4,0
STARLINK-37786,2026-122R,2026-06-26T04:00:01.998720,15.49190492,.0000951,97.2847,206.8824,79.6140,138.2026,0,U,69344,999,479,.13672E-3,.7352E-4,0
STARLINK-37785,2026-122S,2026-06-26T04:00:01.998720,15.49187151,.0000967,97.2846,206.9607,71.6850,331.5434,0,U,69345,999,479,.14949E-3,.8048E-4,0
STARLINK-37773,2026-122T,2026-06-26T04:00:01.998720,15.49188539,.0001365,97.2848,206.9121,102.9289,187.3360,0,U,69346,999,484,.72196E-4,.3838E-4,0
STARLINK-37744,2026-122U,2026-06-26T04:00:01.998720,15.49187514,.0000507,97.2850,206.8021,91.1874,299.4325,0,U,69347,999,479,.90799E-4,.4851E-4,0
STARLINK-37775,2026-122V,2026-06-26T04:00:01.998720,15.49189707,.0001356,97.2848,206.9137,87.9608,204.2039,0,U,69348,999,479,.36209E-3,.19652E-3,0
STARLINK-37777,2026-122W,2026-06-26T04:00:01.998720,15.49189070,.0000971,97.2848,206.9152,82.2609,215.4067,0,U,69349,999,479,-.30985E-4,-.1775E-4,0
STARLINK-37779,2026-122X,2026-06-26T04:00:01.998720,15.49188199,.0001261,97.2848,206.9514,84.1160,297.7590,0,U,69350,999,479,.3587E-4,.1861E-4,0
STARLINK-37549,2026-122Y,2026-06-26T04:00:01.998720,15.49183744,.0001439,97.2855,206.8573,86.4451,71.2771,0,U,69351,999,479,.35299E-3,.19151E-3,0
STARLINK-37778,2026-122Z,2026-06-26T04:00:01.998720,15.49185092,.0001059,97.2853,206.8759,88.8044,113.2410,0,U,69352,999,479,.21383E-3,.11554E-3,0
STARLINK-37651,2026-123A,2026-06-25T12:24:34.822080,15.81030947,.0001153,53.1565,200.0602,179.5430,180.5594,0,U,69353,999,335,.19732E-2,.410838E-2,0
STARLINK-37652,2026-123B,2026-06-25T21:32:26.840832,15.80974723,.0001052,53.1565,198.1670,150.4968,209.6115,0,U,69354,999,341,.16264E-2,.334613E-2,0
STARLINK-37593,2026-123C,2026-06-25T21:31:11.639136,15.80980584,.0002193,53.1564,198.1604,146.5112,213.6049,0,U,69355,999,341,.17162E-2,.354032E-2,0
STARLINK-37597,2026-123D,2026-06-24T09:05:54.799872,15.79381939,.00023389,53.1569,205.7629,75.8290,284.2992,0,U,69356,999,317,.17617196E-2,.337164E-2,0
STARLINK-37598,2026-123E,2026-06-25T21:25:49.737792,15.81002301,.000176,53.1567,198.1353,135.6493,224.4670,0,U,69357,999,341,.18245E-2,.377851E-2,0
STARLINK-37602,2026-123F,2026-06-25T20:47:41.123616,15.75278643,.0000858,53.1585,198.6979,94.2378,265.8741,0,U,69358,999,340,.10149E-2,.158148E-2,0
