STARLINK-37733          
1 69329U 26122A   26177.16668980  .00006502  00000+0  12111-3 0  9990
2 69329  97.2848 206.8768 0001252  88.1070 121.6312 15.49189649  4792
STARLINK-37772          
1 69330U 26122B   26177.16668980 -.00263498  00000+0 -49875-2 0  9999
2 69330  97.2843 206.9091 0001296  91.5957 197.9152 15.49299728  4742
STARLINK-37768          
1 69331U 26122C   26177.16668980  .00019488  00000+0  35923-3 0  9996
2 69331  97.2846 206.8051 0001346  88.9610 308.6886 15.49177691  4742
STARLINK-37833          
1 69332U 26122D   26177.16668980  .00008077  00000+0  15002-3 0  9995
2 69332  97.2851 206.8763 0001116  90.6550 116.4683 15.49191248  4741
STARLINK-37818          
1 69333U 26122E   26177.16668980 -.00008371  00000+0 -15241-3 0  9990
2 69333  97.2853 206.8559 0000778  80.5677  80.5053 15.49190049  4793
STARLINK-37868          
1 69334U 26122F   26177.16668980 -.02571553  00000+0 -53403-1 0  9990
2 69334  97.2847 206.9333 0001454  95.6057 248.7695 15.49232476  4790
STARLINK-37877          
1 69335U 26122G   26177.16668980 -.00008218  00000+0 -14959-3 0  9997
2 69335  97.2849 206.7982 0001403  90.0365 295.1740 15.49191172  4790
STARLINK-37791          
1 69336U 26122H   26177.16668980  .00014080  00000+0  26009-3 0  9999
2 69336  97.2849 206.8782 0001605  98.3897 112.6734 15.49187567  4794
STARLINK-37765          
1 69337U 26122J   26177.16668980 -.02500273  00000+0 -61602-1 0  9994
2 69337  97.2847 206.9882 0001769  63.8771  37.2037 15.44198346  4840
STARLINK-37788          
1 69338U 26122K   26177.16668980 -.00008491  00000+0 -15466-3 0  9997
2 69338  97.2851 206.7937 0000638  95.1007 279.3499 15.49184024  4797
STARLINK-37743          
1 69339U 26122L   26177.16668980 -.00004120  00000+0 -74128-4 0  9994
2 69339  97.2851 206.8648 0000830  88.1106  94.9021 15.49189795  4796
STARLINK-37780          
1 69340U 26122M   26177.16668980  .00016073  00000+0  29666-3 0  9990
2 69340  97.2850 206.9145 0001386  84.4389 210.7177 15.49181627  4841
STARLINK-37781          
1 69341U 26122N   26177.16668980  .00005629  00000+0  10509-3 0  9992
2 69341  97.2853 206.7911 0000722  77.3481 290.6052 15.49188038  4797
STARLINK-37782          
1 69342U 26122P   26177.16668980 -.00007104  00000+0 -12907-3 0  9999
2 69342  97.2845 206.9637 0001252  77.9823 332.4375 15.49189052  4791
STARLINK-37776          
1 69343U 26122Q   26177.16668980 -.00001177  00000+0 -19993-4 0  9997
2 69343  97.2848 206.9560 0000652  80.3766 312.6120 15.49184798  4797
STARLINK-37786          
1 69344U 26122R   26177.16668980  .00007352  00000+0  13672-3 0  9994
2 69344  97.2847 206.8824 0000951  79.6140 138.2026 15.49190492  4793
STARLINK-37785          
1 69345U 26122S   26177.16668980  .00008048  00000+0  14949-3 0  9996
2 69345  97.2846 206.9607 0000967  71.6850 331.5434 15.49187151  4799
STARLINK-37773          
1 69346U 26122T   26177.16668980  .00003838  00000+0  72196-4 0  9998
2 69346  97.2848 206.9121 0001365 102.9289 187.3360 15.49188539  4842
STARLINK-37744          
1 69347U 26122U   26177.16668980  .00004851  00000+0  90799-4 0  9994
2 69347  97.2850 206.8021 0000507  91.1874 299.4325 15.49187514  4792
STARLINK-37775          
1 69348U 26122V   26177.16668980  .00019652  00000+0  36209-3 0  9995
2 69348  97.2848 206.9137 0001356  87.9608 204.2039 15.49189707  4792
STARLINK-37777          
1 69349U 26122W   26177.16668980 -.00001775  00000+0 -30985-4 0  9991
2 69349  97.2848 206.9152 0000971  82.2609 215.4067 15.49189070  4799
STARLINK-37779          
1 69350U 26122X   26177.16668980  .00001861  00000+0  35870-4 0  9995
2 69350  97.2848 206.9514 0001261  84.1160 297.7590 15.49188199  4794
STARLINK-37549          
1 69351U 26122Y   26177.16668980  .00019151  00000+0  35299-3 0  9991
2 69351  97.2855 206.8573 0001439  86.4451  71.2771 15.49183744  4799
STARLINK-37778          
1 69352U 26122Z   26177.16668980  .00011554  00000+0  21383-3 0  9990
2 69352  97.2853 206.8759 0001059  88.8044 113.2410 15.49185092  4791
STARLINK-37651          
1 69353U 26123A   26176.51706970  .00410838  00000+0  19732-2 0  9994
2 69353  53.1565 200.0602 0001153 179.5430 180.5594 15.81030947  3353
STARLINK-37652          
1 69354U 26123B   26176.89753288  .00334613  00000+0  16264-2 0  9993
2 69354  53.1565 198.1670 0001052 150.4968 209.6115 15.80974723  3415
STARLINK-37593          
1 69355U 26123C   26176.89666249  .00354032  00000+0  17162-2 0  9999
2 69355  53.1564 198.1604 0002193 146.5112 213.6049 15.80980584  3419
STARLINK-37597          
1 69356U 26123D   26175.37910648  .00337164  00000+0  17617-2 0  9999
2 69356  53.1569 205.7629 0002338  75.8290 284.2992 15.79381939  3170
STARLINK-37598          
1 69357U 26123E   26176.89293678  .00377851  00000+0  18245-2 0  9990
2 69357  53.1567 198.1353 0001760 135.6493 224.4670 15.81002301  3418
STARLINK-37602          
1 69358U 26123F   26176.86644819  .00158148  00000+0  10149-2 0  9996
2 69358  53.1585 198.6979 0000858  94.2378 265.8741 15.75278643  3401
